{"type": "FeatureCollection", "features": [ {"type": "Feature", "properties": {"norad_id": 30649, "name": "FENGYUN 1C DEB", "group": "fengyun-1c-debris", "lat": -62.57178998718932, "lon": -110.03362814034789, "alt_km": 798.4807043654728, "timestamp": "2025-12-17T23:38:07.131826+00:00", "meta": {"OBJECT_NAME": "FENGYUN 1C DEB", "OBJECT_ID": "1999-025APG", "EPOCH": "2025-12-17T05:57:41.334048", "MEAN_MOTION": 14.29570999, "ECCENTRICITY": 0.00512865, "INCLINATION": 98.8096, "RA_OF_ASC_NODE": 86.6085, "ARG_OF_PERICENTER": 158.5535, "MEAN_ANOMALY": 256.9667, "EPHEMERIS_TYPE": 0, "CLASSIFICATION_TYPE": "U", "NORAD_CAT_ID": 30649, "ELEMENT_SET_NO": 999, "REV_AT_EPOCH": 97128, "BSTAR": 0.00136948, "MEAN_MOTION_DOT": 3.51e-05, "MEAN_MOTION_DDOT": 0}, "tle": {"line1": "1 30649U 99025APG 25351.24839507  .00003510  00000+0  13695-2 0  9995", "line2": "2 30649  98.8096  86.6085 0051286 158.5535 256.9667 14.29570999971284"}}, "geometry": {"type": "Point", "coordinates": [-110.03362814034789, -62.57178998718932]}}, {"type": "Feature", "properties": {"norad_id": 30650, "name": "FENGYUN 1C DEB", "group": "fengyun-1c-debris", "lat": -51.40118916940074, "lon": 44.44819808844258, "alt_km": 887.8757747462614, "timestamp": "2025-12-17T23:38:07.131836+00:00", "meta": {"OBJECT_NAME": "FENGYUN 1C DEB", "OBJECT_ID": "1999-025APH", "EPOCH": "2025-12-17T15:58:46.649280", "MEAN_MOTION": 14.13962242, "ECCENTRICITY": 0.00723196, "INCLINATION": 99.2046, "RA_OF_ASC_NODE": 32.3998, "ARG_OF_PERICENTER": 176.0347, "MEAN_ANOMALY": 308.2485, "EPHEMERIS_TYPE": 0, "CLASSIFICATION_TYPE": "U", "NORAD_CAT_ID": 30650, "ELEMENT_SET_NO": 999, "REV_AT_EPOCH": 96368, "BSTAR": 0.0011523494, "MEAN_MOTION_DOT": 2.197e-05, "MEAN_MOTION_DDOT": 0}, "tle": {"line1": "1 30650U 99025APH 25351.66581770  .00002197  00000+0  11523-2 0  9997", "line2": "2 30650  99.2046  32.3998 0072319 176.0347 308.2485 14.13962242963686"}}, "geometry": {"type": "Point", "coordinates": [44.44819808844258, -51.40118916940074]}}, {"type": "Feature", "properties": {"norad_id": 30652, "name": "FENGYUN 1C DEB", "group": "fengyun-1c-debris", "lat": -71.40888633083992, "lon": 177.60637337257577, "alt_km": 868.8105637233093, "timestamp": "2025-12-17T23:38:07.131846+00:00", "meta": {"OBJECT_NAME": "FENGYUN 1C DEB", "OBJECT_ID": "1999-025APJ", "EPOCH": "2025-12-17T14:29:24.653184", "MEAN_MOTION": 14.07807297, "ECCENTRICITY": 0.00073946, "INCLINATION": 98.7847, "RA_OF_ASC_NODE": 24.6045, "ARG_OF_PERICENTER": 249.5179, "MEAN_ANOMALY": 233.8769, "EPHEMERIS_TYPE": 0, "CLASSIFICATION_TYPE": "U", "NORAD_CAT_ID": 30652, "ELEMENT_SET_NO": 999, "REV_AT_EPOCH": 96762, "BSTAR": 9.5521054e-05, "MEAN_MOTION_DOT": 1.19e-06, "MEAN_MOTION_DDOT": 0}, "tle": {"line1": "1 30652U 99025APJ 25351.60375756  .00000119  00000+0  95521-4 0  9992", "line2": "2 30652  98.7847  24.6045 0007394 249.5179 233.8769 14.07807297967625"}}, "geometry": {"type": "Point", "coordinates": [177.60637337257577, -71.40888633083992]}}, {"type": "Feature", "properties": {"norad_id": 30654, "name": "FENGYUN 1C DEB", "group": "fengyun-1c-debris", "lat": 72.73504159249252, "lon": -116.16588701399645, "alt_km": 802.5994360949799, "timestamp": "2025-12-17T23:38:07.131856+00:00", "meta": {"OBJECT_NAME": "FENGYUN 1C DEB", "OBJECT_ID": "1999-025APL", "EPOCH": "2025-12-17T13:06:56.306592", "MEAN_MOTION": 14.171188, "ECCENTRICITY": 0.00355539, "INCLINATION": 99.2424, "RA_OF_ASC_NODE": 274.9735, "ARG_OF_PERICENTER": 83.2801, "MEAN_ANOMALY": 277.2417, "EPHEMERIS_TYPE": 0, "CLASSIFICATION_TYPE": "U", "NORAD_CAT_ID": 30654, "ELEMENT_SET_NO": 999, "REV_AT_EPOCH": 96748, "BSTAR": 0.00083383304, "MEAN_MOTION_DOT": 1.643e-05, "MEAN_MOTION_DDOT": 0}, "tle": {"line1": "1 30654U 99025APL 25351.54648503  .00001643  00000+0  83383-3 0  9995", "line2": "2 30654  99.2424 274.9735 0035553  83.2801 277.2417 14.17118800967485"}}, "geometry": {"type": "Point", "coordinates": [-116.16588701399645, 72.73504159249252]}}, {"type": "Feature", "properties": {"norad_id": 30656, "name": "FENGYUN 1C DEB", "group": "fengyun-1c-debris", "lat": 36.83813899561179, "lon": 159.57442722611444, "alt_km": 720.0068382044356, "timestamp": "2025-12-17T23:38:07.131866+00:00", "meta": {"OBJECT_NAME": "FENGYUN 1C DEB", "OBJECT_ID": "1999-025APN", "EPOCH": "2025-12-17T10:10:21.286272", "MEAN_MOTION": 14.45406291, "ECCENTRICITY": 0.00301607, "INCLINATION": 99.0176, "RA_OF_ASC_NODE": 165.8113, "ARG_OF_PERICENTER": 72.2554, "MEAN_ANOMALY": 288.1923, "EPHEMERIS_TYPE": 0, "CLASSIFICATION_TYPE": "U", "NORAD_CAT_ID": 30656, "ELEMENT_SET_NO": 999, "REV_AT_EPOCH": 97153, "BSTAR": 0.0019259995, "MEAN_MOTION_DOT": 6.772e-05, "MEAN_MOTION_DDOT": 0}, "tle": {"line1": "1 30656U 99025APN 25351.42385748  .00006772  00000+0  19260-2 0  9993", "line2": "2 30656  99.0176 165.8113 0030160  72.2554 288.1923 14.45406291971538"}}, "geometry": {"type": "Point", "coordinates": [159.57442722611444, 36.83813899561179]}}, {"type": "Feature", "properties": {"norad_id": 30657, "name": "FENGYUN 1C DEB", "group": "fengyun-1c-debris", "lat": 26.727085665670526, "lon": 85.67509830104123, "alt_km": 755.9891157068014, "timestamp": "2025-12-17T23:38:07.131876+00:00", "meta": {"OBJECT_NAME": "FENGYUN 1C DEB", "OBJECT_ID": "1999-025APP", "EPOCH": "2025-12-17T05:28:04.014336", "MEAN_MOTION": 14.38654651, "ECCENTRICITY": 0.00161553, "INCLINATION": 98.8343, "RA_OF_ASC_NODE": 89.3878, "ARG_OF_PERICENTER": 329.9747, "MEAN_ANOMALY": 98.7492, "EPHEMERIS_TYPE": 0, "CLASSIFICATION_TYPE": "U", "NORAD_CAT_ID": 30657, "ELEMENT_SET_NO": 999, "REV_AT_EPOCH": 97297, "BSTAR": 0.0017005697, "MEAN_MOTION_DOT": 5.176e-05, "MEAN_MOTION_DDOT": 0}, "tle": {"line1": "1 30657U 99025APP 25351.22782424  .00005176  00000+0  17006-2 0  9997", "line2": "2 30657  98.8343  89.3878 0016155 329.9747  98.7492 14.38654651972976"}}, "geometry": {"type": "Point", "coordinates": [85.67509830104123, 26.727085665670526]}}, {"type": "Feature", "properties": {"norad_id": 30658, "name": "FENGYUN 1C DEB", "group": "fengyun-1c-debris", "lat": 17.2044980560653, "lon": 21.28693827832783, "alt_km": 1068.2655492186932, "timestamp": "2025-12-17T23:38:07.131886+00:00", "meta": {"OBJECT_NAME": "FENGYUN 1C DEB", "OBJECT_ID": "1999-025APQ", "EPOCH": "2025-12-17T01:02:42.523008", "MEAN_MOTION": 13.87222504, "ECCENTRICITY": 0.01842375, "INCLINATION": 98.4398, "RA_OF_ASC_NODE": 23.0711, "ARG_OF_PERICENTER": 215.9565, "MEAN_ANOMALY": 142.9083, "EPHEMERIS_TYPE": 0, "CLASSIFICATION_TYPE": "U", "NORAD_CAT_ID": 30658, "ELEMENT_SET_NO": 999, "REV_AT_EPOCH": 94744, "BSTAR": 0.0014695272, "MEAN_MOTION_DOT": 1.936e-05, "MEAN_MOTION_DDOT": 0}, "tle": {"line1": "1 30658U 99025APQ 25351.04354772  .00001936  00000+0  14695-2 0  9990", "line2": "2 30658  98.4398  23.0711 0184237 215.9565 142.9083 13.87222504947446"}}, "geometry": {"type": "Point", "coordinates": [21.28693827832783, 17.2044980560653]}}, {"type": "Feature", "properties": {"norad_id": 30660, "name": "FENGYUN 1C DEB", "group": "fengyun-1c-debris", "lat": -22.506561094571403, "lon": -94.82070336788126, "alt_km": 649.7328690670156, "timestamp": "2025-12-17T23:38:07.131896+00:00", "meta": {"OBJECT_NAME": "FENGYUN 1C DEB", "OBJECT_ID": "1999-025APS", "EPOCH": "2025-12-16T02:04:12.254016", "MEAN_MOTION": 14.87578274, "ECCENTRICITY": 0.0136896, "INCLINATION": 98.1391, "RA_OF_ASC_NODE": 86.6315, "ARG_OF_PERICENTER": 323.5173, "MEAN_ANOMALY": 159.4066, "EPHEMERIS_TYPE": 0, "CLASSIFICATION_TYPE": "U", "NORAD_CAT_ID": 30660, "ELEMENT_SET_NO": 999, "REV_AT_EPOCH": 834, "BSTAR": 0.0004011326, "MEAN_MOTION_DOT": 4.262e-05, "MEAN_MOTION_DDOT": 0}, "tle": {"line1": "1 30660U 99025APS 25350.08625294  .00004262  00000+0  40113-3 0  9996", "line2": "2 30660  98.1391  86.6315 0136896 323.5173 159.4066 14.87578274  8343"}}, "geometry": {"type": "Point", "coordinates": [-94.82070336788126, -22.506561094571403]}}, {"type": "Feature", "properties": {"norad_id": 30661, "name": "FENGYUN 1C DEB", "group": "fengyun-1c-debris", "lat": 78.41177104818668, "lon": 113.41560125965621, "alt_km": 749.7178802872768, "timestamp": "2025-12-17T23:38:07.131906+00:00", "meta": {"OBJECT_NAME": "FENGYUN 1C DEB", "OBJECT_ID": "1999-025APT", "EPOCH": "2025-12-16T10:04:54.000480", "MEAN_MOTION": 14.21144396, "ECCENTRICITY": 0.01446168, "INCLINATION": 99.4871, "RA_OF_ASC_NODE": 166.3698, "ARG_OF_PERICENTER": 35.2853, "MEAN_ANOMALY": 325.7791, "EPHEMERIS_TYPE": 0, "CLASSIFICATION_TYPE": "U", "NORAD_CAT_ID": 30661, "ELEMENT_SET_NO": 999, "REV_AT_EPOCH": 97954, "BSTAR": 0.00011408083, "MEAN_MOTION_DOT": 2.25e-06, "MEAN_MOTION_DDOT": 0}, "tle": {"line1": "1 30661U 99025APT 25350.42006945  .00000225  00000+0  11408-3 0  9991", "line2": "2 30661  99.4871 166.3698 0144616  35.2853 325.7791 14.21144396979546"}}, "geometry": {"type": "Point", "coordinates": [113.41560125965621, 78.41177104818668]}}, {"type": "Feature", "properties": {"norad_id": 30662, "name": "FENGYUN 1C DEB", "group": "fengyun-1c-debris", "lat": 26.75932644440447, "lon": -126.98661881942111, "alt_km": 821.5609350932946, "timestamp": "2025-12-17T23:38:07.131916+00:00", "meta": {"OBJECT_NAME": "FENGYUN 1C DEB", "OBJECT_ID": "1999-025APU", "EPOCH": "2025-12-17T02:47:53.975616", "MEAN_MOTION": 14.2238731, "ECCENTRICITY": 0.00333112, "INCLINATION": 99.053, "RA_OF_ASC_NODE": 47.5109, "ARG_OF_PERICENTER": 258.3821, "MEAN_ANOMALY": 131.5027, "EPHEMERIS_TYPE": 0, "CLASSIFICATION_TYPE": "U", "NORAD_CAT_ID": 30662, "ELEMENT_SET_NO": 999, "REV_AT_EPOCH": 96701, "BSTAR": 0.0012023141, "MEAN_MOTION_DOT": 2.645e-05, "MEAN_MOTION_DDOT": 0}, "tle": {"line1": "1 30662U 99025APU 25351.11659694  .00002645  00000+0  12023-2 0  9995", "line2": "2 30662  99.0530  47.5109 0033311 258.3821 131.5027 14.22387310967014"}}, "geometry": {"type": "Point", "coordinates": [-126.98661881942111, 26.75932644440447]}}]}